satname,norad_id,inclination_deg,eccentricity,mean_motion_rev_per_day,perigee_km,apogee_km,l1,l2
STARLINK-1351,45697,53.0439,0.0002497,15.66735746,366.5668153779834,369.93596173922924,1 45697U 20035AS  26161.59531731  .00046449  00000+0  43579-3 0  9998,2 45697  53.0439 288.8338 0002497 151.6869 208.4282 15.66735746333875
STARLINK-1400,45700,53.0422,0.0001897,15.65435113,370.7071719997166,373.2681692997612,1 45700U 20035AV  26161.61176987  .00041763  00000+0  41357-3 0  9990,2 45700  53.0422 291.3453 0001897  49.0846 311.0332 15.65435113333834
STARLINK-1403,45701,53.1554,0.0001375,15.34257628,462.1857587950426,464.0671062389847,1 45701U 20035AW  26161.62912226  .00051767  00000+0  15396-2 0  9994,2 45701  53.1554 324.3152 0001375 230.3033 129.7848 15.34257628333384
STARLINK-1407,45703,53.0268,0.0006798,15.74471461,341.5644607266777,350.7067817825355,1 45703U 20035AY  26161.33084955  .00102769  00000+0  68812-3 0  9994,2 45703  53.0268 219.1183 0006798  32.9993 327.1448 15.74471461334824
STARLINK-1411,45706,53.0272,0.0011577,15.95682001,278.6991861049146,294.1302891982732,1 45706U 20035BB  26161.66670139  .00530635  12685-3  12843-2 0  9993,2 45706  53.0272 238.3219 0011577 352.9167 359.7834 15.95682001  5972
STARLINK-1423,45710,53.0433,0.0005009,15.69517813,356.9015007085409,363.65204362549866,1 45710U 20035BF  26161.59993891  .00050868  00000+0  42524-3 0  9992,2 45710  53.0433 287.7674 0005009  93.2890 266.8700 15.69517813333872
STARLINK-1433,45711,53.0429,0.0004644,15.69053051,358.47740561543196,364.73728016110636,1 45711U 20035BG  26161.58622080  .00049674  00000+0  42350-3 0  9991,2 45711  53.0429 286.4450 0004644 101.6795 258.4743 15.69053051333893
STARLINK-1434,45712,53.051,0.0001082,15.34677926,461.137220682539,462.6173997792721,1 45712U 20035BH  26161.60372338  .00041696  00000+0  12274-2 0  9990,2 45712  53.0510 306.9628 0001082  62.3386 297.7725 15.34677926333624
STARLINK-1465,45731,53.0431,0.0001282,15.68689652,361.7840097213784,363.5123470411154,1 45731U 20038B   26161.21749455  .00056132  00000+0  48492-3 0  9992,2 45731  53.0431 133.8572 0001282  92.2410 267.8753 15.68689652330806
STARLINK-1471,45735,53.045,0.0002823,15.53676474,404.0875243902574,407.9178496575514,1 45735U 20038F   26161.41570061  .00024310  00000+0  37993-3 0  9990,2 45735  53.0450  56.1306 0002823 125.4689 234.6585 15.53676474331923
STARLINK-1480,45741,53.0471,0.0006422,15.65565144,367.2792124572479,375.94859251640173,1 45741U 20038M   26161.20725244  .00049899  00000+0  48964-3 0  9998,2 45741  53.0471 127.6680 0006422  41.9831 318.1675 15.65565144330901
STARLINK-1500,45744,53.0345,0.0001952,15.39348985,446.70076832808536,449.3657051885166,1 45744U 20038Q   26161.58815679  .00021255  00000+0  54462-3 0  9990,2 45744  53.0345 115.3951 0001952 122.0843 238.0350 15.39348985331102
STARLINK-1504,45746,53.0206,0.0003268,15.59258141,387.5911535401692,392.0146790694662,1 45746U 20038S   26161.42033967  .00033908  00000+0  42823-3 0  9993,2 45746  53.0206  52.7262 0003268 111.8631 248.2728 15.59258141331953
STARLINK-1506,45747,53.076,0.0001974,15.28353366,479.38039536469296,482.08827776836915,1 45747U 20038T   26161.18407217  .00007153  00000+0  26795-3 0  9993,2 45747  53.0760 133.7338 0001974 160.3935 199.7140 15.28353366330825
STARLINK-1464,45751,53.0457,0.0004696,15.54279972,401.0614625897133,407.4314771446125,1 45751U 20038X   26161.18464329  .00027542  00000+0  41992-3 0  9995,2 45751  53.0457 121.0499 0004696  47.2608 312.8796 15.54279972330997
STARLINK-1477,45754,53.0462,0.0001469,15.19040134,507.7285697449688,509.7519342816104,1 45754U 20038AA  26161.21419798  .00027976  00000+0  13289-2 0  9990,2 45754  53.0462 150.8781 0001469   4.5920 355.5088 15.19040134330577
STARLINK-1478,45755,53.0443,0.0004691,15.68751591,359.3087272269977,365.63276541459527,1 45755U 20038AB  26161.56321368  .00052521  00000+0  45290-3 0  9996,2 45755  53.0443 103.6853 0004691  84.6698 275.4853 15.68751591331250
STARLINK-1493,45759,53.0451,0.0006851,15.65319968,367.69395569169683,376.94343008209125,1 45759U 20038AF  26161.52828408  .00046676  00000+0  46298-3 0  9996,2 45759  53.0451 113.6131 0006851  39.3258 320.8253 15.65319968331111
STARLINK-1494,45760,53.0341,0.0007215,16.17647902,221.18094053362438,230.71063199420314,1 45760U 20038AG  26161.89880110  .01095623  87036-3  66978-3 0  9998,2 45760  53.0341  38.3177 0007215 249.7331 110.2931 16.17647902332203
STARLINK-1502,45764,53.0445,0.0005639,15.62218234,377.4393281434932,385.0625658701265,1 45764U 20038AL  26161.58579987  .00084535  00000+0  93826-3 0  9998,2 45764  53.0445 117.2015 0005639  17.0630 343.0572 15.62218234331089
STARLINK-1470,45772,53.0417,0.0004062,15.3548335,456.70774689195514,462.2626311583199,1 45772U 20038AU  26161.12357904  .00047991  00000+0  13739-2 0  9999,2 45772  53.0417 102.7290 0004062  44.5494 315.5833 15.35483350331248
STARLINK-1482,45773,53.1552,0.0004849,15.3806994,448.5052551673816,455.1289446534756,1 45773U 20038AV  26161.58473089  .00040300  00000+0  10643-2 0  9991,2 45773  53.1552 116.9727 0004849  40.6580 319.4785 15.38069940331100
STARLINK-1496,45780,53.0451,6.39e-05,15.68941045,361.49741380267915,362.35879412296526,1 45780U 20038BC  26161.10156204  .00060341  00000+0  51531-3 0  9993,2 45780  53.0451  89.9832 0000639 147.4100 212.6955 15.68941045331402
STARLINK-1513,45786,53.1602,0.0001304,15.31705832,469.8295190990866,471.61570168547587,1 45786U 20038BJ  26161.57780172  .00001740  00000+0  67798-4 0  9998,2 45786  53.1602 119.0904 0001304  96.4009 263.7141 15.31705832331072
STARLINK-1522,46027,53.0622,0.0002985,15.13260532,524.2035301267588,528.3254578186607,1 46027U 20055A   26161.46989376  .00020415  00000+0  11482-2 0  9998,2 46027  53.0622  66.9579 0002985  59.7334 300.3953 15.13260532322914
STARLINK-1523,46028,53.1608,9.85e-05,15.30571246,473.4318738244665,474.78176585697565,1 46028U 20055B   26161.39824866  .00011186  00000+0  38481-3 0  9997,2 46028  53.1608  56.0676 0000985 113.4580 246.6525 15.30571246323090
STARLINK-1526,46029,53.1576,0.0001098,15.30200043,474.4624429859532,475.967439072203,1 46029U 20055C   26161.00167105  .00006052  00000+0  21628-3 0  9993,2 46029  53.1576  57.9356 0001098  95.9193 264.1933 15.30200043323025
STARLINK-1555,46032,53.1606,0.0001444,15.3017652,474.2955432010849,476.27481152590735,1 46032U 20055F   26161.44308360 -.00001249  00000+0 -30072-4 0  9994,2 46032  53.1606  55.8659 0001444  80.7712 279.3452 15.30176520323093
STARLINK-1556,46033,53.16,0.0001622,15.30193548,474.1227171656592,476.3459508264068,1 46033U 20055G   26161.42620444 -.00003126  00000+0 -93463-4 0  9992,2 46033  53.1600  55.9613 0001622 105.7161 254.4019 15.30193548323062
STARLINK-1557,46034,53.1607,0.0001072,15.30193311,474.5003601575154,475.96972312324215,1 46034U 20055H   26161.42935114 -.00011100  00000+0 -36328-3 0  9993,2 46034  53.1607  55.9446 0001072 100.9941 259.1181 15.30193311323066
STARLINK-1558,46035,53.1612,0.0001139,15.30216366,474.3856126939145,475.9467951637689,1 46035U 20055J   26161.43673637  .00008042  00000+0  28321-3 0  9997,2 46035  53.1612  55.9084 0001139  97.7648 262.3483 15.30216366323092
STARLINK-1560,46036,53.1598,0.0001227,15.30185176,474.41841983872655,476.1002432984933,1 46036U 20055K   26161.42305326 -.00000163  00000+0  66176-5 0  9993,2 46036  53.1598  55.9806 0001227  96.3979 263.7161 15.30185176323090
STARLINK-1569,46039,53.162,0.0001592,15.30194973,474.13902313728795,476.32113521529664,1 46039U 20055N   26161.43990365  .00004286  00000+0  15678-3 0  9998,2 46039  53.1620  55.8865 0001592  80.7777 279.3404 15.30194973323088
STARLINK-1582,46043,53.1593,0.0001246,15.31704948,469.87187729903235,471.5786137706191,1 46043U 20055S   26160.99783057  .00006307  00000+0  21480-3 0  9995,2 46043  53.1593  57.3214 0001246  85.2838 274.8306 15.31704948323026
STARLINK-1591,46045,53.1596,0.0001271,15.30185871,474.38618998117545,476.1283228011516,1 46045U 20055U   26161.40723527 -.00000672  00000+0 -10557-4 0  9995,2 46045  53.1596  56.0415 0001271 110.7024 249.4113 15.30185871323064
STARLINK-1524,46047,53.1604,0.0001114,15.31698375,469.98187383347704,471.5078047072666,1 46047U 20055W   26160.96715890  .00002562  00000+0  94290-4 0  9995,2 46047  53.1604  44.7647 0001114  98.5649 261.5479 15.31698375323204
STARLINK-1527,46048,53.1583,7.87e-05,15.31702141,470.194606906246,471.2726191407355,1 46048U 20055X   26160.96249333  .00003520  00000+0  12514-3 0  9993,2 46048  53.1583  44.7637 0000787  78.2389 281.8701 15.31702141323177
STARLINK-1540,46051,53.1629,0.000142,15.31727789,469.68463014448935,471.62968768562223,1 46051U 20055AA  26161.40528250  .00010629  00000+0  35350-3 0  9996,2 46051  53.1629  42.9176 0001420  88.6524 271.4640 15.31727789323285
STARLINK-1541,46052,53.1576,0.0004521,15.85234473,312.63833141957457,318.69086682550096,1 46052U 20055AB  26161.66670139  .00141591  00000+0  57741-3 0  9990,2 46052  53.1576  24.4444 0004521 244.9084 175.4270 15.85234473  5969
STARLINK-1543,46053,53.1605,0.0001458,15.31705816,469.7240943489969,471.7212218252953,1 46053U 20055AC  26161.37730006  .00003666  00000+0  12983-3 0  9998,2 46053  53.1605  42.8490 0001458  90.9208 269.1961 15.31705816323271
STARLINK-1548,46054,53.162,0.0001398,15.31702121,469.77620052227667,471.691144762347,1 46054U 20055AD  26161.39129168  .00003260  00000+0  11676-3 0  9990,2 46054  53.1620  42.8590 0001398  91.6311 268.4851 15.31702121323272
STARLINK-1554,46055,53.1601,0.0001308,15.31695059,469.85888909161804,471.65055916665005,1 46055U 20055AE  26161.37265399  .00001428  00000+0  57779-4 0  9995,2 46055  53.1601  42.8848 0001308  74.7942 285.3204 15.31695059323272
STARLINK-1564,46058,53.1623,0.0001127,15.30195076,474.457397200028,476.0021460703556,1 46058U 20055AH  26161.36463310  .00001791  00000+0  72576-4 0  9995,2 46058  53.1623  43.9044 0001127  92.5280 267.5850 15.30195076323251
